NORAD_CAT_ID,OBJECT_NAME,OBJECT_TYPE,EPOCH,MEAN_MOTION,ECCENTRICITY,INCLINATION,RA_OF_ASC_NODE,ARG_OF_PERICENTER,MEAN_ANOMALY,BSTAR,MEAN_MOTION_DOT,MEAN_MOTION_DDOT,TLE_LINE0,TLE_LINE1,TLE_LINE2,SEMIMAJOR_AXIS,PERIOD,APOGEE,PERIGEE,DECAYED
52580.0,STARLINK-3919,PAYLOAD,2022-06-24 14:00:01,15.20299132,0.0001467,53.2175,93.141,61.3797,182.2483,-0.041139,-0.0083424,0.0,0 STARLINK-3919,1 52580U 22051AW  22175.58334491 -.00834240  00000-0 -41139-1 0  9996,2 52580  53.2175  93.1410 0001467  61.3797 182.2483 15.20299132  1300,6883.075,94.718,505.949,503.93,0.0
52580.0,STARLINK-3919,PAYLOAD,2022-06-24 22:00:01,15.19704191,0.000154,53.2176,91.6221,56.5279,212.164,-0.041929,-0.00835476,0.0,0 STARLINK-3919,1 52580U 22051AW  22175.91668981 -.00835476  00000-0 -41929-1 0  9996,2 52580  53.2176  91.6221 0001540  56.5279 212.1640 15.19704191  7079,6884.871,94.755,507.796,505.676,0.0
52580.0,STARLINK-3919,PAYLOAD,2022-06-25 14:00:01,15.18511276,0.0001328,53.2175,88.586,60.6853,255.8004,-0.043274,-0.00842731,0.0,0 STARLINK-3919,1 52580U 22051AW  22176.58334491 -.00842731  00000-0 -43274-1 0  9993,2 52580  53.2175  88.5860 0001328  60.6853 255.8004 15.18511276  1307,6888.476,94.83,511.256,509.426,0.0
52580.0,STARLINK-3919,PAYLOAD,2022-06-25 22:00:00,15.17917672,0.0001413,53.2177,87.0713,56.0989,283.2395,-0.044201,-0.00845889,0.0,0 STARLINK-3919,1 52580U 22051AW  22176.91667824 -.00845889  00000-0 -44201-1 0  9997,2 52580  53.2177  87.0713 0001413  56.0989 283.2395 15.17917672  7228,6890.272,94.867,513.111,511.163,0.0
52580.0,STARLINK-3919,PAYLOAD,2022-06-26 14:00:01,15.16723978,0.0001262999999999,53.2174,84.0434,62.0565,320.908,-0.045559,-0.00842598,0.0,0 STARLINK-3919,1 52580U 22051AW  22177.58335648 -.00842598  00000-0 -45559-1 0  9998,2 52580  53.2174  84.0434 0001263  62.0565 320.9080 15.16723978  1308,6893.887,94.941,516.622,514.881,0.0
52580.0,STARLINK-3919,PAYLOAD,2022-06-26 20:00:01,15.16279569,0.0001459,53.2177,82.9103,57.5269,250.97,-0.046331,-0.00845812,0.0,0 STARLINK-3919,1 52580U 22051AW  22177.83334491 -.00845812  00000-0 -46331-1 0  9992,2 52580  53.2177  82.9103 0001459  57.5269 250.9700 15.16279569  7363,6895.234,94.969,518.105,516.0930000000002,0.0
52580.0,STARLINK-3919,PAYLOAD,2022-06-26 22:00:00,15.16130848,0.0001489,53.2177,82.5332,49.6319,353.9743,-0.046569,-0.00846496,0.0,0 STARLINK-3919,1 52580U 22051AW  22177.91667824 -.00846496  00000-0 -46569-1 0  9992,2 52580  53.2177  82.5332 0001489  49.6319 353.9743 15.16130848  1309,6895.685,94.979,518.576,516.523,0.0
52580.0,STARLINK-3919,PAYLOAD,2022-06-27 14:00:01,15.14937788,0.0001381,53.2174,79.5134,57.5432,25.3309,-0.048037,-0.00844103,0.0,0 STARLINK-3919,1 52580U 22051AW  22178.58334491 -.00844103  00000-0 -48037-1 0  9992,2 52580  53.2174  79.5134 0001381  57.5432  25.3309 15.14937788  1301,6899.304,95.053,522.122,520.217,0.0
52580.0,STARLINK-3919,PAYLOAD,2022-06-27 22:00:00,15.14343052,0.0001626999999999,53.2176,78.0075,47.5733,53.8591,-0.048941,-0.00845514,0.0,0 STARLINK-3919,1 52580U 22051AW  22178.91667824 -.00845514  00000-0 -48941-1 0  9999,2 52580  53.2176  78.0075 0001627  47.5733  53.8591 15.14343052  7521,6901.111,95.091,524.099,521.8530000000002,0.0
52580.0,STARLINK-3919,PAYLOAD,2022-06-28 14:00:01,15.13151823,0.0001479,53.2174,74.9959,58.9203,77.4846,-0.050652,-0.00846044,0.0,0 STARLINK-3919,1 52580U 22051AW  22179.58334491 -.00846044  00000-0 -50652-1 0  9995,2 52580  53.2174  74.9959 0001479  58.9203  77.4846 15.13151823  1305,6904.732,95.166,527.618,525.576,0.0
52580.0,STARLINK-3919,PAYLOAD,2022-06-28 22:00:00,15.12554974,0.0001621,53.2175,73.4942,54.5499,98.2667,-0.051368,-0.00843894,0.0,0 STARLINK-3919,1 52580U 22051AW  22179.91667824 -.00843894  00000-0 -51368-1 0  9996,2 52580  53.2175  73.4942 0001621  54.5499  98.2667 15.12554974  1305,6906.5480000000025,95.203,529.533,527.294,0.0
52580.0,STARLINK-3919,PAYLOAD,2022-06-29 06:00:00,15.11959941,0.0001414,53.2173,71.9926,73.8997,94.6652,-0.052252,-0.0084417,0.0,0 STARLINK-3919,1 52580U 22051AW  22180.25001157 -.00844170  00000-0 -52252-1 0  9997,2 52580  53.2173  71.9926 0001414  73.8997  94.6652 15.11959941  7734,6908.36,95.241,531.202,529.249,0.0
52580.0,STARLINK-3919,PAYLOAD,2022-06-29 14:00:01,15.11364809,0.00015,53.2173,70.4907,63.9129,119.6336,-0.05328,-0.00846428,0.0,0 STARLINK-3919,1 52580U 22051AW  22180.58334491 -.00846428  00000-0 -53280-1 0  9993,2 52580  53.2173  70.4907 0001500  63.9129 119.6336 15.11364809  1307,6910.174,95.278,533.075,531.002,0.0
52580.0,STARLINK-3919,PAYLOAD,2022-06-29 22:00:00,15.10766761,0.0001684,53.2174,68.9933,53.5673,144.2438,-0.053875,-0.0084207999999999,0.0,0 STARLINK-3919,1 52580U 22051AW  22180.91667824 -.00842080  00000-0 -53875-1 0  9999,2 52580  53.2174  68.9933 0001684  53.5673 144.2438 15.10766761  1300,6911.996999999999,95.316,535.026,532.698,0.0
52580.0,STARLINK-3919,PAYLOAD,2022-06-30 06:00:00,15.101733,0.0001426999999999,53.2172,67.4957,70.7945,140.5647,-0.054978,-0.00845029,0.0,0 STARLINK-3919,1 52580U 22051AW  22181.25001157 -.00845029  00000-0 -54978-1 0  9999,2 52580  53.2172  67.4957 0001427  70.7945 140.5647 15.10173300  7887,6913.808000000001,95.353,536.66,534.686,0.0
52580.0,STARLINK-3919,PAYLOAD,2022-06-30 14:00:01,15.09504666,0.0001414,53.2172,65.9971,57.5481,166.66,-0.042946,-0.00652337,0.0,0 STARLINK-3919,1 52580U 22051AW  22181.58334491 -.00652337  00000-0 -42946-1 0  9995,2 52580  53.2172  65.9971 0001414  57.5481 166.6600 15.09504666  1300,6915.85,95.396,538.692,536.737,0.0
52580.0,STARLINK-3919,PAYLOAD,2022-06-30 22:00:00,15.08959452,0.0001646,53.2173,64.5024,46.4647,189.8635,-0.011935,-0.00185979,0.0,0 STARLINK-3919,1 52580U 22051AW  22181.91667824 -.00185979  00000-0 -11935-1 0  9998,2 52580  53.2173  64.5024 0001646  46.4647 189.8635 15.08959452  7984,6917.515,95.43,540.519,538.242,0.0
52580.0,STARLINK-3919,PAYLOAD,2022-07-01 06:00:00,15.08838461,0.0001635,53.2172,63.0059,49.3458,198.6373,-0.00020151,-3.494e-05,0.0,0 STARLINK-3919,1 52580U 22051AW  22182.25001157 -.00003494  00000-0 -20151-3 0  9990,2 52580  53.2172  63.0059 0001635  49.3458 198.6373 15.08838461  8035,6917.885,95.438,540.881,538.619,0.0
52580.0,STARLINK-3919,PAYLOAD,2022-07-01 14:00:01,15.08821114,0.000121,53.2196,61.4991,57.7858,201.6947,0.0025861,0.00041088,0.0,0 STARLINK-3919,1 52580U 22051AW  22182.58334491  .00041088  00000-0  25861-2 0  9997,2 52580  53.2196  61.4991 0001210  57.7858 201.6947 15.08821114  8088,6917.938,95.439,540.64,538.966,0.0
52580.0,STARLINK-3919,PAYLOAD,2022-07-01 22:00:00,15.08849908,0.0001384,53.2196,60.0045,52.5455,218.5292,-0.0007603,-0.00012371,0.0,0 STARLINK-3919,1 52580U 22051AW  22182.91667824 -.00012371  00000-0 -76030-3 0  9993,2 52580  53.2196  60.0045 0001384  52.5455 218.5292 15.08849908  1300,6917.85,95.437,540.673,538.758,0.0
52580.0,STARLINK-3919,PAYLOAD,2022-07-02 06:00:00,15.08864367,0.0001372,53.2196,58.5079,50.0138,232.6571,-0.0015066,-0.00024201,0.0,0 STARLINK-3919,1 52580U 22051AW  22183.25001157 -.00024201  00000-0 -15066-2 0  9998,2 52580  53.2196  58.5079 0001372  50.0138 232.6571 15.08864367  8183,6917.806,95.436,540.62,538.722,0.0
52580.0,STARLINK-3919,PAYLOAD,2022-07-02 14:00:01,15.0883952,0.0001277,53.22,57.0101,59.363,234.9296,0.0026968,0.00042892,0.0,0 STARLINK-3919,1 52580U 22051AW  22183.58334491  .00042892  00000-0  26968-2 0  9991,2 52580  53.2200  57.0101 0001277  59.3630 234.9296 15.08839520  1301,6917.882,95.438,540.63,538.863,0.0
52580.0,STARLINK-3919,PAYLOAD,2022-07-02 22:00:00,15.088733800000002,0.0001436,53.22,55.5154,53.2829,252.6324,-0.00023082,-3.963e-05,0.0,0 STARLINK-3919,1 52580U 22051AW  22183.91667824 -.00003963  00000-0 -23082-3 0  9990,2 52580  53.2200  55.5154 0001436  53.2829 252.6324 15.08873380  1303,6917.778,95.435,540.637,538.65,0.0
52580.0,STARLINK-3919,PAYLOAD,2022-07-03 00:00:00,15.08865665,0.0001473,53.2201,55.1416,52.3066,346.5189,0.00097513,0.00015276,0.0,0 STARLINK-3919,1 52580U 22051AW  22184.00001157  .00015276  00000-0  97513-3 0  9990,2 52580  53.2201  55.1416 0001473  52.3066 346.5189 15.08865665  8299,6917.802,95.436,540.686,538.648,0.0
52580.0,STARLINK-3919,PAYLOAD,2022-07-03 14:00:01,15.08851932,0.0001438,53.2202,52.5209,64.1062,265.0742,-0.00020809,-3.599e-05,0.0,0 STARLINK-3919,1 52580U 22051AW  22184.58334491 -.00003599  00000-0 -20809-3 0  9994,2 52580  53.2202  52.5209 0001438  64.1062 265.0742 15.08851932  8381,6917.844,95.437,540.7040000000002,538.714,0.0
52580.0,STARLINK-3919,PAYLOAD,2022-07-03 22:00:00,15.0884467,0.0001602,53.2201,51.0263,58.3918,282.3899,-0.0032168,-0.00051127,0.0,0 STARLINK-3919,1 52580U 22051AW  22184.91667824 -.00051127  00000-0 -32168-2 0  9990,2 52580  53.2201  51.0263 0001602  58.3918 282.3899 15.08844670  1303,6917.866,95.437,540.839,538.623,0.0
52580.0,STARLINK-3919,PAYLOAD,2022-07-04 06:00:00,15.08824333,0.000149,53.2199,49.5294,56.8365,295.5232,-0.0020116,-0.00032146,0.0,0 STARLINK-3919,1 52580U 22051AW  22185.25001157 -.00032146  00000-0 -20116-2 0  9999,2 52580  53.2199  49.5294 0001490  56.8365 295.5232 15.08824333  8486,6917.928000000001,95.439,540.8240000000002,538.763,0.0
52580.0,STARLINK-3919,PAYLOAD,2022-07-04 14:00:01,15.08798248,0.0001406999999999,53.2202,48.0321,66.1208,297.802,0.0023195,0.00036777,0.0,0 STARLINK-3919,1 52580U 22051AW  22185.58334491  .00036777  00000-0  23195-2 0  9997,2 52580  53.2202  48.0321 0001407  66.1208 297.8020 15.08798248  1303,6918.0080000000025,95.44,540.846,538.9,0.0
52580.0,STARLINK-3919,PAYLOAD,2022-07-04 22:00:00,15.08819981,0.0001541999999999,53.2201,46.5377,58.9222,316.5656,-0.00021415,-3.693e-05,0.0,0 STARLINK-3919,1 52580U 22051AW  22185.91667824 -.00003693  00000-0 -21415-3 0  9990,2 52580  53.2201  46.5377 0001542  58.9222 316.5656 15.08819981  8580,6917.941999999999,95.439,540.873,538.74,0.0
